[Satellite]
VERSION=1.1
NAME=EXPRESS-AM5
NICKNAME=EXPRESS-AM5
TLE1=1 39487U 13077A   15053.69658618 -.00000306  00000-0  00000+0 0  9991
TLE2=2 39487   0.0541 288.7930 0000631 131.2688 122.9732  1.00270973  4941
